CCSDS_OMM_VERS = 2.0
CREATION_DATE  = 
ORIGINATOR     = 

OBJECT_NAME    = STARLINK-36991
OBJECT_ID      = 2026-039AB
CENTER_NAME    = EARTH
REF_FRAME      = TEME
TIME_SYSTEM    = UTC
MEAN_ELEMENT_THEORY = SGP/SGP4

EPOCH          = 2026-03-22T00:00:02.000160
MEAN_MOTION    = 15.50488205
ECCENTRICITY   = .00021159
INCLINATION    = 42.9998
RA_OF_ASC_NODE = 341.1865
ARG_OF_PERICENTER = 277.6890
MEAN_ANOMALY   = 159.1594

EPHEMERIS_TYPE = 0
CLASSIFICATION_TYPE = U
NORAD_CAT_ID   = 68011
ELEMENT_SET_NO = 999
REV_AT_EPOCH   = 485
BSTAR          = .11428067E-2
MEAN_MOTION_DOT = .67062E-3
MEAN_MOTION_DDOT = 0

CCSDS_OMM_VERS = 2.0
CREATION_DATE  = 
ORIGINATOR     = 

OBJECT_NAME    = STARLINK-36936
OBJECT_ID      = 2026-039AC
CENTER_NAME    = EARTH
REF_FRAME      = TEME
TIME_SYSTEM    = UTC
MEAN_ELEMENT_THEORY = SGP/SGP4

EPOCH          = 2026-03-22T20:00:01.999872
MEAN_MOTION    = 15.50619485
ECCENTRICITY   = .00016069
INCLINATION    = 43.0003
RA_OF_ASC_NODE = 335.5963
ARG_OF_PERICENTER = 254.9399
MEAN_ANOMALY   = 88.7777

EPHEMERIS_TYPE = 0
CLASSIFICATION_TYPE = U
NORAD_CAT_ID   = 68012
ELEMENT_SET_NO = 999
REV_AT_EPOCH   = 499
BSTAR          = -.10034316E-2
MEAN_MOTION_DOT = -.58853E-3
MEAN_MOTION_DDOT = 0

CCSDS_OMM_VERS = 2.0
CREATION_DATE  = 
ORIGINATOR     = 

OBJECT_NAME    = STARLINK-36967
OBJECT_ID      = 2026-039AD
CENTER_NAME    = EARTH
REF_FRAME      = TEME
TIME_SYSTEM    = UTC
MEAN_ELEMENT_THEORY = SGP/SGP4

EPOCH          = 2026-03-22T16:32:55.094784
MEAN_MOTION    = 15.50565500
ECCENTRICITY   = .00019629
INCLINATION    = 42.9986
RA_OF_ASC_NODE = 337.0781
ARG_OF_PERICENTER = 254.0409
MEAN_ANOMALY   = 106.0235

EPHEMERIS_TYPE = 0
CLASSIFICATION_TYPE = U
NORAD_CAT_ID   = 68013
ELEMENT_SET_NO = 999
REV_AT_EPOCH   = 367
BSTAR          = .14796673E-2
MEAN_MOTION_DOT = .87398E-3
MEAN_MOTION_DDOT = 0

CCSDS_OMM_VERS = 2.0
CREATION_DATE  = 
ORIGINATOR     = 

OBJECT_NAME    = STARLINK-36985
OBJECT_ID      = 2026-039AE
CENTER_NAME    = EARTH
REF_FRAME      = TEME
TIME_SYSTEM    = UTC
MEAN_ELEMENT_THEORY = SGP/SGP4

EPOCH          = 2026-03-22T20:00:01.999872
MEAN_MOTION    = 15.51757093
ECCENTRICITY   = .00016713
INCLINATION    = 42.9987
RA_OF_ASC_NODE = 335.0642
ARG_OF_PERICENTER = 271.9990
MEAN_ANOMALY   = 287.0595

EPHEMERIS_TYPE = 0
CLASSIFICATION_TYPE = U
NORAD_CAT_ID   = 68014
ELEMENT_SET_NO = 999
REV_AT_EPOCH   = 499
BSTAR          = -.2678744E-1
MEAN_MOTION_DOT = -.1462834E-1
MEAN_MOTION_DDOT = 0

CCSDS_OMM_VERS = 2.0
CREATION_DATE  = 
ORIGINATOR     = 

OBJECT_NAME    = STARLINK-36335
OBJECT_ID      = 2026-040A
CENTER_NAME    = EARTH
REF_FRAME      = TEME
TIME_SYSTEM    = UTC
MEAN_ELEMENT_THEORY = SGP/SGP4

EPOCH          = 2026-03-22T20:00:01.999872
MEAN_MOTION    = 15.75243957
ECCENTRICITY   = .00015505
INCLINATION    = 97.2864
RA_OF_ASC_NODE = 30.9226
ARG_OF_PERICENTER = 111.1828
MEAN_ANOMALY   = 264.2686

EPHEMERIS_TYPE = 0
CLASSIFICATION_TYPE = U
NORAD_CAT_ID   = 68015
ELEMENT_SET_NO = 999
REV_AT_EPOCH   = 449
BSTAR          = .7774123E-5
MEAN_MOTION_DOT = .1033E-4
MEAN_MOTION_DDOT = 0

CCSDS_OMM_VERS = 2.0
CREATION_DATE  = 
ORIGINATOR     = 

OBJECT_NAME    = STARLINK-36923
OBJECT_ID      = 2026-040B
CENTER_NAME    = EARTH
REF_FRAME      = TEME
TIME_SYSTEM    = UTC
MEAN_ELEMENT_THEORY = SGP/SGP4

EPOCH          = 2026-03-22T20:00:01.999872
MEAN_MOTION    = 15.75441936
ECCENTRICITY   = .00016386
INCLINATION    = 97.2859
RA_OF_ASC_NODE = 30.9270
ARG_OF_PERICENTER = 68.5327
MEAN_ANOMALY   = 312.8512

EPHEMERIS_TYPE = 0
CLASSIFICATION_TYPE = U
NORAD_CAT_ID   = 68016
ELEMENT_SET_NO = 999
REV_AT_EPOCH   = 454
BSTAR          = -.24305482E-2
MEAN_MOTION_DOT = -.351999E-2
MEAN_MOTION_DDOT = 0

CCSDS_OMM_VERS = 2.0
CREATION_DATE  = 
ORIGINATOR     = 

OBJECT_NAME    = STARLINK-36568
OBJECT_ID      = 2026-040C
CENTER_NAME    = EARTH
REF_FRAME      = TEME
TIME_SYSTEM    = UTC
MEAN_ELEMENT_THEORY = SGP/SGP4

EPOCH          = 2026-03-22T20:00:01.999872
MEAN_MOTION    = 15.75410767
ECCENTRICITY   = .00014761
INCLINATION    = 97.2857
RA_OF_ASC_NODE = 30.9284
ARG_OF_PERICENTER = 92.0644
MEAN_ANOMALY   = 293.3434

EPHEMERIS_TYPE = 0
CLASSIFICATION_TYPE = U
NORAD_CAT_ID   = 68017
ELEMENT_SET_NO = 999
REV_AT_EPOCH   = 454
BSTAR          = -.22749906E-2
MEAN_MOTION_DOT = -.329861E-2
MEAN_MOTION_DDOT = 0

CCSDS_OMM_VERS = 2.0
CREATION_DATE  = 
ORIGINATOR     = 

OBJECT_NAME    = STARLINK-36930
OBJECT_ID      = 2026-040D
CENTER_NAME    = EARTH
REF_FRAME      = TEME
TIME_SYSTEM    = UTC
MEAN_ELEMENT_THEORY = SGP/SGP4

EPOCH          = 2026-03-22T20:00:01.999872
MEAN_MOTION    = 15.75211675
ECCENTRICITY   = .00014969
INCLINATION    = 97.2859
RA_OF_ASC_NODE = 30.9254
ARG_OF_PERICENTER = 111.3722
MEAN_ANOMALY   = 266.0973

EPHEMERIS_TYPE = 0
CLASSIFICATION_TYPE = U
NORAD_CAT_ID   = 68018
ELEMENT_SET_NO = 999
REV_AT_EPOCH   = 454
BSTAR          = .19731604E-3
MEAN_MOTION_DOT = .2943E-3
MEAN_MOTION_DDOT = 0

CCSDS_OMM_VERS = 2.0
CREATION_DATE  = 
ORIGINATOR     = 

OBJECT_NAME    = STARLINK-36921
OBJECT_ID      = 2026-040E
CENTER_NAME    = EARTH
REF_FRAME      = TEME
TIME_SYSTEM    = UTC
MEAN_ELEMENT_THEORY = SGP/SGP4

EPOCH          = 2026-03-22T20:00:01.999872
MEAN_MOTION    = 15.75225007
ECCENTRICITY   = .0001715
INCLINATION    = 97.2849
RA_OF_ASC_NODE = 30.9382
ARG_OF_PERICENTER = 56.2738
MEAN_ANOMALY   = 343.1874

EPHEMERIS_TYPE = 0
CLASSIFICATION_TYPE = U
NORAD_CAT_ID   = 68019
ELEMENT_SET_NO = 999
REV_AT_EPOCH   = 454
BSTAR          = -.32136965E-4
MEAN_MOTION_DOT = -.4928E-4
MEAN_MOTION_DDOT = 0

CCSDS_OMM_VERS = 2.0
CREATION_DATE  = 
ORIGINATOR     = 

OBJECT_NAME    = STARLINK-36928
OBJECT_ID      = 2026-040F
CENTER_NAME    = EARTH
REF_FRAME      = TEME
TIME_SYSTEM    = UTC
MEAN_ELEMENT_THEORY = SGP/SGP4

EPOCH          = 2026-03-22T20:00:01.999872
MEAN_MOTION    = 15.75271107
ECCENTRICITY   = .00013462
INCLINATION    = 97.2856
RA_OF_ASC_NODE = 30.9336
ARG_OF_PERICENTER = 79.7145
MEAN_ANOMALY   = 313.7436

EPHEMERIS_TYPE = 0
CLASSIFICATION_TYPE = U
NORAD_CAT_ID   = 68020
ELEMENT_SET_NO = 999
REV_AT_EPOCH   = 454
BSTAR          = -.78102662E-3
MEAN_MOTION_DOT = -.11547E-2
MEAN_MOTION_DDOT = 0

CCSDS_OMM_VERS = 2.0
CREATION_DATE  = 
ORIGINATOR     = 

OBJECT_NAME    = STARLINK-36858
OBJECT_ID      = 2026-040G
CENTER_NAME    = EARTH
REF_FRAME      = TEME
TIME_SYSTEM    = UTC
MEAN_ELEMENT_THEORY = SGP/SGP4

EPOCH          = 2026-03-22T22:48:13.467168
MEAN_MOTION    = 15.75383089
ECCENTRICITY   = .0001162
INCLINATION    = 97.2836
RA_OF_ASC_NODE = 31.2209
ARG_OF_PERICENTER = 109.0153
MEAN_ANOMALY   = 251.1238

EPHEMERIS_TYPE = 0
CLASSIFICATION_TYPE = U
NORAD_CAT_ID   = 68021
ELEMENT_SET_NO = 999
REV_AT_EPOCH   = 345
BSTAR          = -.33921E-2
MEAN_MOTION_DOT = -.482577E-2
MEAN_MOTION_DDOT = 0

CCSDS_OMM_VERS = 2.0
CREATION_DATE  = 
ORIGINATOR     = 

OBJECT_NAME    = STARLINK-36916
OBJECT_ID      = 2026-040H
CENTER_NAME    = EARTH
REF_FRAME      = TEME
TIME_SYSTEM    = UTC
MEAN_ELEMENT_THEORY = SGP/SGP4

EPOCH          = 2026-03-22T20:00:01.999872
MEAN_MOTION    = 15.75427581
ECCENTRICITY   = .00014324
INCLINATION    = 97.2857
RA_OF_ASC_NODE = 30.9368
ARG_OF_PERICENTER = 85.6466
MEAN_ANOMALY   = 319.7495

EPHEMERIS_TYPE = 0
CLASSIFICATION_TYPE = U
NORAD_CAT_ID   = 68022
ELEMENT_SET_NO = 999
REV_AT_EPOCH   = 454
BSTAR          = -.25165983E-2
MEAN_MOTION_DOT = -.36372E-2
MEAN_MOTION_DDOT = 0

