STARLINK-36991          
1 68011U 26039AB  26081.00002315  .00067062  00000+0  11428-2 0  9992
2 68011  42.9998 341.1865 0002115 277.6890 159.1594 15.50488205  4854
STARLINK-36936          
1 68012U 26039AC  26081.83335648 -.00058853  00000+0 -10034-2 0  9994
2 68012  43.0003 335.5963 0001606 254.9399  88.7777 15.50619485  4997
STARLINK-36967          
1 68013U 26039AD  26081.68952656  .00087398  00000+0  14797-2 0  9996
2 68013  42.9986 337.0781 0001962 254.0409 106.0235 15.50565500  3674
STARLINK-36985          
1 68014U 26039AE  26081.83335648 -.01462834  00000+0 -26787-1 0  9996
2 68014  42.9987 335.0642 0001671 271.9990 287.0595 15.51757093  4996
STARLINK-36335          
1 68015U 26040A   26081.83335648  .00001033  00000+0  77741-5 0  9996
2 68015  97.2864  30.9226 0001550 111.1828 264.2686 15.75243957  4492
STARLINK-36923          
1 68016U 26040B   26081.83335648 -.00351999  00000+0 -24305-2 0  9993
2 68016  97.2859  30.9270 0001638  68.5327 312.8512 15.75441936  4543
STARLINK-36568          
1 68017U 26040C   26081.83335648 -.00329861  00000+0 -22750-2 0  9999
2 68017  97.2857  30.9284 0001476  92.0644 293.3434 15.75410767  4545
STARLINK-36930          
1 68018U 26040D   26081.83335648  .00029430  00000+0  19732-3 0  9994
2 68018  97.2859  30.9254 0001496 111.3722 266.0973 15.75211675  4541
STARLINK-36921          
1 68019U 26040E   26081.83335648 -.00004928  00000+0 -32137-4 0  9997
2 68019  97.2849  30.9382 0001715  56.2738 343.1874 15.75225007  4542
STARLINK-36928          
1 68020U 26040F   26081.83335648 -.00115470  00000+0 -78103-3 0  9996
2 68020  97.2856  30.9336 0001346  79.7145 313.7436 15.75271107  4542
STARLINK-36858          
1 68021U 26040G   26081.95015587 -.00482577  00000+0 -33921-2 0  9990
2 68021  97.2836  31.2209 0001162 109.0153 251.1238 15.75383089  3453
STARLINK-36916          
1 68022U 26040H   26081.83335648 -.00363720  00000+0 -25166-2 0  9991
2 68022  97.2857  30.9368 0001432  85.6466 319.7495 15.75427581  4548
